{"type": "FeatureCollection", "features": [ {"type": "Feature", "properties": {"norad_id": 66052, "name": "HRC MONOBLOCK CAMERA", "group": "stations", "lat": -48.385880950612, "lon": 5.442496911117892, "alt_km": 405.09821327721966, "timestamp": "2025-12-27T08:36:17.113313+00:00", "meta": {"OBJECT_NAME": "HRC MONOBLOCK CAMERA", "OBJECT_ID": "1998-067XR", "EPOCH": "2025-12-27T04:17:20.433408", "MEAN_MOTION": 15.55149311, "ECCENTRICITY": 0.0001868, "INCLINATION": 51.6303, "RA_OF_ASC_NODE": 69.4595, "ARG_OF_PERICENTER": 257.1988, "MEAN_ANOMALY": 102.8794, "EPHEMERIS_TYPE": 0, "CLASSIFICATION_TYPE": "U", "NORAD_CAT_ID": 66052, "ELEMENT_SET_NO": 999, "REV_AT_EPOCH": 1108, "BSTAR": 0.00056068, "MEAN_MOTION_DOT": 0.0003823, "MEAN_MOTION_DDOT": 0}, "tle": {"line1": "1 66052U 98067XR  25361.17870872  .00038230  00000+0  56068-3 0  9999", "line2": "2 66052  51.6303  69.4595 0001868 257.1988 102.8794 15.55149311 11086"}}, "geometry": {"type": "Point", "coordinates": [5.442496911117892, -48.385880950612]}}, {"type": "Feature", "properties": {"norad_id": 66174, "name": "HTV-X1", "group": "stations", "lat": -50.644647330913116, "lon": -4.948372807939142, "alt_km": 419.78192507531, "timestamp": "2025-12-27T08:36:17.113323+00:00", "meta": {"OBJECT_NAME": "HTV-X1", "OBJECT_ID": "2025-241A", "EPOCH": "2025-12-26T20:34:16.428576", "MEAN_MOTION": 15.49855582, "ECCENTRICITY": 0.00032301, "INCLINATION": 51.6319, "RA_OF_ASC_NODE": 72.5609, "ARG_OF_PERICENTER": 307.0606, "MEAN_ANOMALY": 53.0087, "EPHEMERIS_TYPE": 0, "CLASSIFICATION_TYPE": "U", "NORAD_CAT_ID": 66174, "ELEMENT_SET_NO": 999, "REV_AT_EPOCH": 51, "BSTAR": 0.00027091986, "MEAN_MOTION_DOT": 0.00014958, "MEAN_MOTION_DDOT": 0}, "tle": {"line1": "1 66174U 25241A   25360.85713459  .00014958  00000+0  27092-3 0  9995", "line2": "2 66174  51.6319  72.5609 0003230 307.0606  53.0087 15.49855582   511"}}, "geometry": {"type": "Point", "coordinates": [-4.948372807939142, -50.644647330913116]}}, {"type": "Feature", "properties": {"norad_id": 66515, "name": "SZ-21 MODULE", "group": "stations", "lat": -21.4060365817869, "lon": -99.5268409713246, "alt_km": 377.36355911604096, "timestamp": "2025-12-27T08:36:17.113333+00:00", "meta": {"OBJECT_NAME": "SZ-21 MODULE", "OBJECT_ID": "2025-246C", "EPOCH": "2025-12-27T04:08:50.820288", "MEAN_MOTION": 15.63263847, "ECCENTRICITY": 0.0004159, "INCLINATION": 41.4764, "RA_OF_ASC_NODE": 287.9534, "ARG_OF_PERICENTER": 338.5057, "MEAN_ANOMALY": 21.5607, "EPHEMERIS_TYPE": 0, "CLASSIFICATION_TYPE": "U", "NORAD_CAT_ID": 66515, "ELEMENT_SET_NO": 999, "REV_AT_EPOCH": 670, "BSTAR": 0.00034324, "MEAN_MOTION_DOT": 0.00032194, "MEAN_MOTION_DDOT": 0}, "tle": {"line1": "1 66515U 25246C   25361.17281042  .00032194  00000+0  34324-3 0  9991", "line2": "2 66515  41.4764 287.9534 0004159 338.5057  21.5607 15.63263847  6708"}}, "geometry": {"type": "Point", "coordinates": [-99.5268409713246, -21.4060365817869]}}, {"type": "Feature", "properties": {"norad_id": 66645, "name": "SHENZHOU-22", "group": "stations", "lat": -34.84652672600477, "lon": 159.9541331116104, "alt_km": 390.31426489937985, "timestamp": "2025-12-27T08:36:17.113345+00:00", "meta": {"OBJECT_NAME": "SHENZHOU-22", "OBJECT_ID": "2025-272A", "EPOCH": "2025-12-26T22:21:45.161280", "MEAN_MOTION": 15.59735336, "ECCENTRICITY": 0.00087329, "INCLINATION": 41.4675, "RA_OF_ASC_NODE": 290.5114, "ARG_OF_PERICENTER": 154.941, "MEAN_ANOMALY": 205.1854, "EPHEMERIS_TYPE": 0, "CLASSIFICATION_TYPE": "U", "NORAD_CAT_ID": 66645, "ELEMENT_SET_NO": 999, "REV_AT_EPOCH": 26598, "BSTAR": 0.00023104085, "MEAN_MOTION_DOT": 0.00018761, "MEAN_MOTION_DDOT": 0}, "tle": {"line1": "1 66645U 25272A   25360.93177270  .00018761  00000+0  23104-3 0  9992", "line2": "2 66645  41.4675 290.5114 0008732 154.9410 205.1854 15.59735336265984"}}, "geometry": {"type": "Point", "coordinates": [159.9541331116104, -34.84652672600477]}}, {"type": "Feature", "properties": {"norad_id": 66664, "name": "SOYUZ-MS 28", "group": "stations", "lat": -50.64463561833339, "lon": -4.948283559537343, "alt_km": 419.78192366420444, "timestamp": "2025-12-27T08:36:17.113355+00:00", "meta": {"OBJECT_NAME": "SOYUZ-MS 28", "OBJECT_ID": "2025-275A", "EPOCH": "2025-12-26T20:34:16.427712", "MEAN_MOTION": 15.49855582, "ECCENTRICITY": 0.000323, "INCLINATION": 51.6319, "RA_OF_ASC_NODE": 72.5609, "ARG_OF_PERICENTER": 307.0606, "MEAN_ANOMALY": 53.0087, "EPHEMERIS_TYPE": 0, "CLASSIFICATION_TYPE": "U", "NORAD_CAT_ID": 66664, "ELEMENT_SET_NO": 999, "REV_AT_EPOCH": 463, "BSTAR": 0.00027092, "MEAN_MOTION_DOT": 0.00014958, "MEAN_MOTION_DDOT": 0}, "tle": {"line1": "1 66664U 25275A   25360.85713458  .00014958  00000+0  27092-3 0  9995", "line2": "2 66664  51.6319  72.5609 0003230 307.0606  53.0087 15.49855582  4632"}}, "geometry": {"type": "Point", "coordinates": [-4.948283559537343, -50.64463561833339]}}, {"type": "Feature", "properties": {"norad_id": 66906, "name": "1998-067XS", "group": "stations", "lat": 12.250574610555304, "lon": 79.78235306806985, "alt_km": 412.0094360253088, "timestamp": "2025-12-27T08:36:17.113367+00:00", "meta": {"OBJECT_NAME": "1998-067XS", "OBJECT_ID": "1998-067XS", "EPOCH": "2025-12-26T15:31:52.021632", "MEAN_MOTION": 15.5132596, "ECCENTRICITY": 0.00026732, "INCLINATION": 51.6319, "RA_OF_ASC_NODE": 73.4106, "ARG_OF_PERICENTER": 274.6449, "MEAN_ANOMALY": 85.4236, "EPHEMERIS_TYPE": 0, "CLASSIFICATION_TYPE": "U", "NORAD_CAT_ID": 66906, "ELEMENT_SET_NO": 999, "REV_AT_EPOCH": 377, "BSTAR": 0.00048784884, "MEAN_MOTION_DOT": 0.0002883, "MEAN_MOTION_DDOT": 0}, "tle": {"line1": "1 66906U 98067XS  25360.64712988  .00028830  00000+0  48785-3 0  9993", "line2": "2 66906  51.6319  73.4106 0002673 274.6449  85.4236 15.51325960  3771"}}, "geometry": {"type": "Point", "coordinates": [79.78235306806985, 12.250574610555304]}}, {"type": "Feature", "properties": {"norad_id": 66907, "name": "1998-067XT", "group": "stations", "lat": 49.48208057160727, "lon": -178.28504397338588, "alt_km": 402.6316122754224, "timestamp": "2025-12-27T08:36:17.113377+00:00", "meta": {"OBJECT_NAME": "1998-067XT", "OBJECT_ID": "1998-067XT", "EPOCH": "2025-12-26T12:05:04.890048", "MEAN_MOTION": 15.53165234, "ECCENTRICITY": 0.0003816, "INCLINATION": 51.6314, "RA_OF_ASC_NODE": 73.9516, "ARG_OF_PERICENTER": 309.8325, "MEAN_ANOMALY": 50.2329, "EPHEMERIS_TYPE": 0, "CLASSIFICATION_TYPE": "U", "NORAD_CAT_ID": 66907, "ELEMENT_SET_NO": 999, "REV_AT_EPOCH": 375, "BSTAR": 0.00096732, "MEAN_MOTION_DOT": 0.00061851, "MEAN_MOTION_DDOT": 0}, "tle": {"line1": "1 66907U 98067XT  25360.50352882  .00061851  00000+0  96732-3 0  9997", "line2": "2 66907  51.6314  73.9516 0003816 309.8325  50.2329 15.53165234  3750"}}, "geometry": {"type": "Point", "coordinates": [-178.28504397338588, 49.48208057160727]}}, {"type": "Feature", "properties": {"norad_id": 66908, "name": "1998-067XU", "group": "stations", "lat": 47.160111798016835, "lon": -169.01290904560807, "alt_km": 402.97042364250046, "timestamp": "2025-12-27T08:36:17.113387+00:00", "meta": {"OBJECT_NAME": "1998-067XU", "OBJECT_ID": "1998-067XU", "EPOCH": "2025-12-26T18:14:01.549824", "MEAN_MOTION": 15.53257933, "ECCENTRICITY": 0.00038698, "INCLINATION": 51.6313, "RA_OF_ASC_NODE": 72.6614, "ARG_OF_PERICENTER": 309.5614, "MEAN_ANOMALY": 50.5034, "EPHEMERIS_TYPE": 0, "CLASSIFICATION_TYPE": "U", "NORAD_CAT_ID": 66908, "ELEMENT_SET_NO": 999, "REV_AT_EPOCH": 379, "BSTAR": 0.00095802228, "MEAN_MOTION_DOT": 0.00061456, "MEAN_MOTION_DDOT": 0}, "tle": {"line1": "1 66908U 98067XU  25360.75974016  .00061456  00000+0  95802-3 0  9992", "line2": "2 66908  51.6313  72.6614 0003869 309.5614  50.5034 15.53257933  3799"}}, "geometry": {"type": "Point", "coordinates": [-169.01290904560807, 47.160111798016835]}}, {"type": "Feature", "properties": {"norad_id": 66909, "name": "SILVERSAT", "group": "stations", "lat": 41.7043814676606, "lon": -155.25487304304866, "alt_km": 402.93572146882343, "timestamp": "2025-12-27T08:36:17.113398+00:00", "meta": {"OBJECT_NAME": "SILVERSAT", "OBJECT_ID": "1998-067XV", "EPOCH": "2025-12-26T12:00:46.911744", "MEAN_MOTION": 15.53512588, "ECCENTRICITY": 0.0003773, "INCLINATION": 51.6312, "RA_OF_ASC_NODE": 73.9315, "ARG_OF_PERICENTER": 313.4073, "MEAN_ANOMALY": 46.6603, "EPHEMERIS_TYPE": 0, "CLASSIFICATION_TYPE": "U", "NORAD_CAT_ID": 66909, "ELEMENT_SET_NO": 999, "REV_AT_EPOCH": 375, "BSTAR": 0.0010737, "MEAN_MOTION_DOT": 0.00069652, "MEAN_MOTION_DDOT": 0}, "tle": {"line1": "1 66909U 98067XV  25360.50054296  .00069652  00000+0  10737-2 0  9994", "line2": "2 66909  51.6312  73.9315 0003773 313.4073  46.6603 15.53512588  3752"}}, "geometry": {"type": "Point", "coordinates": [-155.25487304304866, 41.7043814676606]}}, {"type": "Feature", "properties": {"norad_id": 66910, "name": "1998-067XW", "group": "stations", "lat": 36.62334117724634, "lon": -146.44406344175647, "alt_km": 403.83711717487495, "timestamp": "2025-12-27T08:36:17.113408+00:00", "meta": {"OBJECT_NAME": "1998-067XW", "OBJECT_ID": "1998-067XW", "EPOCH": "2025-12-26T15:03:47.074752", "MEAN_MOTION": 15.53436341, "ECCENTRICITY": 0.0003732, "INCLINATION": 51.6301, "RA_OF_ASC_NODE": 73.2786, "ARG_OF_PERICENTER": 284.7259, "MEAN_ANOMALY": 75.3317, "EPHEMERIS_TYPE": 0, "CLASSIFICATION_TYPE": "U", "NORAD_CAT_ID": 66910, "ELEMENT_SET_NO": 999, "REV_AT_EPOCH": 377, "BSTAR": 0.0011547, "MEAN_MOTION_DOT": 0.00074776, "MEAN_MOTION_DDOT": 0}, "tle": {"line1": "1 66910U 98067XW  25360.62762818  .00074776  00000+0  11547-2 0  9998", "line2": "2 66910  51.6301  73.2786 0003732 284.7259  75.3317 15.53436341  3773"}}, "geometry": {"type": "Point", "coordinates": [-146.44406344175647, 36.62334117724634]}}]}